{
    "links": {
        "self": "http://www.neowsapp.com/rest/v1/neo/3354738?api_key=iIulBulltgU6a56xZRHN4H3l9WmuAYTsLGpBGhQ2"
    },
    "id": "3354738",
    "neo_reference_id": "3354738",
    "name": "(2006 UH185)",
    "designation": "2006 UH185",
    "nasa_jpl_url": "http://ssd.jpl.nasa.gov/sbdb.cgi?sstr=3354738",
    "absolute_magnitude_h": 25.1,
    "estimated_diameter": {
        "kilometers": {
            "estimated_diameter_min": 0.0253837029,
            "estimated_diameter_max": 0.0567596853
        },
        "meters": {
            "estimated_diameter_min": 25.3837029364,
            "estimated_diameter_max": 56.7596852866
        },
        "miles": {
            "estimated_diameter_min": 0.0157726969,
            "estimated_diameter_max": 0.0352688224
        },
        "feet": {
            "estimated_diameter_min": 83.279867942,
            "estimated_diameter_max": 186.2194458756
        }
    },
    "is_potentially_hazardous_asteroid": false,
    "close_approach_data": [
        {
            "close_approach_date": "2006-11-02",
            "close_approach_date_full": "2006-Nov-02 13:40",
            "epoch_date_close_approach": 1162474800000,
            "relative_velocity": {
                "kilometers_per_second": "7.56481671",
                "kilometers_per_hour": "27233.3401559015",
                "miles_per_hour": "16921.7384985378"
            },
            "miss_distance": {
                "astronomical": "0.0721107971",
                "lunar": "28.0511000719",
                "kilometers": "10787621.650162177",
                "miles": "6703117.2657329626"
            },
            "orbiting_body": "Earth"
        }
    ],
    "orbital_data": {
        "orbit_id": "6",
        "orbit_determination_date": "2017-04-06 09:07:46",
        "first_observation_date": "2006-10-28",
        "last_observation_date": "2006-10-29",
        "data_arc_in_days": 1,
        "observations_used": 19,
        "orbit_uncertainty": "8",
        "minimum_orbit_intersection": ".0705139",
        "jupiter_tisserand_invariant": "4.034",
        "epoch_osculation": "2454037.5",
        "eccentricity": ".3936331246859959",
        "semi_major_axis": "1.738848053705624",
        "inclination": "11.38638648693788",
        "ascending_node_longitude": "213.9692983198439",
        "orbital_period": "837.5116892070499",
        "perihelion_distance": "1.054379860971317",
        "perihelion_argument": "196.8383217009642",
        "aphelion_distance": "2.423316246439932",
        "perihelion_time": "2454052.884007865522",
        "mean_anomaly": "353.3872650340779",
        "mean_motion": ".429844746812842",
        "equinox": "J2000",
        "orbit_class": {
            "orbit_class_type": "AMO",
            "orbit_class_description": "Near-Earth asteroid orbits similar to that of 1221 Amor",
            "orbit_class_range": "1.017 AU < q (perihelion) < 1.3 AU"
        }
    },
    "is_sentry_object": false
}